{
    "links": {
        "self": "http://www.neowsapp.com/rest/v1/neo/3829467?api_key=iIulBulltgU6a56xZRHN4H3l9WmuAYTsLGpBGhQ2"
    },
    "id": "3829467",
    "neo_reference_id": "3829467",
    "name": "(2018 RO7)",
    "designation": "2018 RO7",
    "nasa_jpl_url": "http://ssd.jpl.nasa.gov/sbdb.cgi?sstr=3829467",
    "absolute_magnitude_h": 23.2,
    "estimated_diameter": {
        "kilometers": {
            "estimated_diameter_min": 0.0608912622,
            "estimated_diameter_max": 0.1361570015
        },
        "meters": {
            "estimated_diameter_min": 60.8912622106,
            "estimated_diameter_max": 136.1570015386
        },
        "miles": {
            "estimated_diameter_min": 0.0378360645,
            "estimated_diameter_max": 0.0846040122
        },
        "feet": {
            "estimated_diameter_min": 199.7744887109,
            "estimated_diameter_max": 446.7093369279
        }
    },
    "is_potentially_hazardous_asteroid": false,
    "close_approach_data": [
        {
            "close_approach_date": "2018-09-05",
            "close_approach_date_full": "2018-Sep-05 05:08",
            "epoch_date_close_approach": 1536124080000,
            "relative_velocity": {
                "kilometers_per_second": "10.1349786624",
                "kilometers_per_hour": "36485.9231845313",
                "miles_per_hour": "22670.933769855"
            },
            "miss_distance": {
                "astronomical": "0.0739643852",
                "lunar": "28.7721458428",
                "kilometers": "11064914.481779524",
                "miles": "6875419.0415604712"
            },
            "orbiting_body": "Earth"
        }
    ],
    "orbital_data": {
        "orbit_id": "16",
        "orbit_determination_date": "2018-11-06 06:08:19",
        "first_observation_date": "2018-09-13",
        "last_observation_date": "2018-10-10",
        "data_arc_in_days": 27,
        "observations_used": 101,
        "orbit_uncertainty": "6",
        "minimum_orbit_intersection": ".0719001",
        "jupiter_tisserand_invariant": "3.483",
        "epoch_osculation": "2459000.5",
        "eccentricity": ".5472638278038569",
        "semi_major_axis": "2.152472173872182",
        "inclination": "8.164492922379656",
        "ascending_node_longitude": "190.5501815583723",
        "orbital_period": "1153.46586180901",
        "perihelion_distance": ".9745020127576028",
        "perihelion_argument": "119.1992348114018",
        "aphelion_distance": "3.330442334986762",
        "perihelion_time": "2459493.177025400934",
        "mean_anomaly": "206.234088916882",
        "mean_motion": ".3121028648697092",
        "equinox": "J2000",
        "orbit_class": {
            "orbit_class_type": "APO",
            "orbit_class_description": "Near-Earth asteroid orbits which cross the Earth’s orbit similar to that of 1862 Apollo",
            "orbit_class_range": "a (semi-major axis) > 1.0 AU; q (perihelion) < 1.017 AU"
        }
    },
    "is_sentry_object": false
}